ONEWEB-0228             
1 48780U 21045P   24107.85241582 -.00000126  00000+0 -36926-3 0  9997
2 48780  87.9023  56.6514 0001781  80.7294 279.4038 13.15548074140288
